{"type": "FeatureCollection", "features": [ {"type": "Feature", "properties": {"norad_id": 46974, "name": "IRIDIUM 33 DEB", "group": "iridium-33-debris", "lat": 85.07499998678509, "lon": -118.37757747289645, "alt_km": 783.3341773309776, "timestamp": "2025-12-01T03:58:49.184767+00:00", "meta": {"OBJECT_NAME": "IRIDIUM 33 DEB", "OBJECT_ID": "1997-051ACG", "EPOCH": "2025-11-30T02:35:30.463008", "MEAN_MOTION": 14.43749529, "ECCENTRICITY": 0.00958857, "INCLINATION": 86.2984, "RA_OF_ASC_NODE": 110.7848, "ARG_OF_PERICENTER": 228.1133, "MEAN_ANOMALY": 131.1861, "EPHEMERIS_TYPE": 0, "CLASSIFICATION_TYPE": "U", "NORAD_CAT_ID": 46974, "ELEMENT_SET_NO": 999, "REV_AT_EPOCH": 57326, "BSTAR": 0.0048958995, "MEAN_MOTION_DOT": 0.00017648, "MEAN_MOTION_DDOT": 0, "GROUP": "iridium-33-debris"}, "tle": {"line1": "1 46974U 97051ACG 25334.10799147  .00017648  00000+0  48959-2 0  9999", "line2": "2 46974  86.2984 110.7848 0095885 228.1133 131.1861 14.43749529573265"}}, "geometry": {"type": "Point", "coordinates": [-118.37757747289645, 85.07499998678509]}}, {"type": "Feature", "properties": {"norad_id": 46979, "name": "IRIDIUM 33 DEB", "group": "iridium-33-debris", "lat": 43.58672749447591, "lon": 57.41982384002818, "alt_km": 615.8402861533259, "timestamp": "2025-12-01T03:58:49.184777+00:00", "meta": {"OBJECT_NAME": "IRIDIUM 33 DEB", "OBJECT_ID": "1997-051ACM", "EPOCH": "2025-11-30T11:38:39.666912", "MEAN_MOTION": 14.8796966, "ECCENTRICITY": 0.00284916, "INCLINATION": 86.3342, "RA_OF_ASC_NODE": 54.2366, "ARG_OF_PERICENTER": 265.8685, "MEAN_ANOMALY": 93.9284, "EPHEMERIS_TYPE": 0, "CLASSIFICATION_TYPE": "U", "NORAD_CAT_ID": 46979, "ELEMENT_SET_NO": 999, "REV_AT_EPOCH": 35246, "BSTAR": 0.0050666624, "MEAN_MOTION_DOT": 0.00047078, "MEAN_MOTION_DDOT": 0, "GROUP": "iridium-33-debris"}, "tle": {"line1": "1 46979U 97051ACM 25334.48518133  .00047078  00000+0  50667-2 0  9998", "line2": "2 46979  86.3342  54.2366 0028491 265.8685  93.9284 14.87969660352464"}}, "geometry": {"type": "Point", "coordinates": [57.41982384002818, 43.58672749447591]}}]}